{"type": "FeatureCollection", "features": [ {"type": "Feature", "properties": {"norad_id": 43010, "name": "FENGYUN 3D", "group": "weather", "lat": 44.201907867943056, "lon": -43.066871162278225, "alt_km": 822.850923732798, "timestamp": "2025-12-25T07:00:33.686234+00:00", "meta": {"OBJECT_NAME": "FENGYUN 3D", "OBJECT_ID": "2017-072A", "EPOCH": "2025-12-24T22:20:28.508928", "MEAN_MOTION": 14.19686565, "ECCENTRICITY": 0.00015298, "INCLINATION": 98.9913, "RA_OF_ASC_NODE": 325.4241, "ARG_OF_PERICENTER": 148.1468, "MEAN_ANOMALY": 211.9801, "EPHEMERIS_TYPE": 0, "CLASSIFICATION_TYPE": "U", "NORAD_CAT_ID": 43010, "ELEMENT_SET_NO": 999, "REV_AT_EPOCH": 42026, "BSTAR": -7.2064953e-05, "MEAN_MOTION_DOT": -1.98e-06, "MEAN_MOTION_DDOT": 0}, "tle": {"line1": "1 43010U 17072A   25358.93088552 -.00000198  00000+0 -72065-4 0  9991", "line2": "2 43010  98.9913 325.4241 0001529 148.1468 211.9801 14.19686565420266"}}, "geometry": {"type": "Point", "coordinates": [-43.066871162278225, 44.201907867943056]}}, {"type": "Feature", "properties": {"norad_id": 43013, "name": "NOAA 20 (JPSS-1)", "group": "weather", "lat": -9.949548369411385, "lon": 113.90212817009576, "alt_km": 831.8338478673813, "timestamp": "2025-12-25T07:00:33.686245+00:00", "meta": {"OBJECT_NAME": "NOAA 20 (JPSS-1)", "OBJECT_ID": "2017-073A", "EPOCH": "2025-12-24T21:39:33.336288", "MEAN_MOTION": 14.19528892, "ECCENTRICITY": 0.00020722, "INCLINATION": 98.7615, "RA_OF_ASC_NODE": 295.067, "ARG_OF_PERICENTER": 69.8419, "MEAN_ANOMALY": 290.2979, "EPHEMERIS_TYPE": 0, "CLASSIFICATION_TYPE": "U", "NORAD_CAT_ID": 43013, "ELEMENT_SET_NO": 999, "REV_AT_EPOCH": 41974, "BSTAR": 6.412575e-05, "MEAN_MOTION_DOT": 9.1e-07, "MEAN_MOTION_DDOT": 0}, "tle": {"line1": "1 43013U 17073A   25358.90246917  .00000091  00000+0  64126-4 0  9992", "line2": "2 43013  98.7615 295.0670 0002072  69.8419 290.2979 14.19528892419748"}}, "geometry": {"type": "Point", "coordinates": [113.90212817009576, -9.949548369411385]}}, {"type": "Feature", "properties": {"norad_id": 43226, "name": "GOES 17", "group": "weather", "lat": 0.19237611397093676, "lon": 109.68228433155085, "alt_km": 35798.884101698226, "timestamp": "2025-12-25T07:00:33.686266+00:00", "meta": {"OBJECT_NAME": "GOES 17", "OBJECT_ID": "2018-022A", "EPOCH": "2025-12-24T19:31:19.169184", "MEAN_MOTION": 1.00272091, "ECCENTRICITY": 0.00030879, "INCLINATION": 0.4869, "RA_OF_ASC_NODE": 89.0551, "ARG_OF_PERICENTER": 190.9463, "MEAN_ANOMALY": 16.9111, "EPHEMERIS_TYPE": 0, "CLASSIFICATION_TYPE": "U", "NORAD_CAT_ID": 43226, "ELEMENT_SET_NO": 999, "REV_AT_EPOCH": 2867, "BSTAR": 0, "MEAN_MOTION_DOT": -1.62e-06, "MEAN_MOTION_DDOT": 0}, "tle": {"line1": "1 43226U 18022A   25358.81341631 -.00000162  00000+0  00000+0 0  9998", "line2": "2 43226   0.4869  89.0551 0003087 190.9463  16.9111  1.00272091 28678"}}, "geometry": {"type": "Point", "coordinates": [109.68228433155085, 0.19237611397093676]}}, {"type": "Feature", "properties": {"norad_id": 43491, "name": "FENGYUN 2H", "group": "weather", "lat": -0.7893907639923541, "lon": -81.4751607119079, "alt_km": 35777.798383883746, "timestamp": "2025-12-25T07:00:33.686280+00:00", "meta": {"OBJECT_NAME": "FENGYUN 2H", "OBJECT_ID": "2018-050A", "EPOCH": "2025-12-24T22:56:37.992192", "MEAN_MOTION": 1.00270516, "ECCENTRICITY": 0.00024102, "INCLINATION": 2.5804, "RA_OF_ASC_NODE": 81.2014, "ARG_OF_PERICENTER": 166.3835, "MEAN_ANOMALY": 269.6344, "EPHEMERIS_TYPE": 0, "CLASSIFICATION_TYPE": "U", "NORAD_CAT_ID": 43491, "ELEMENT_SET_NO": 999, "REV_AT_EPOCH": 2769, "BSTAR": 0, "MEAN_MOTION_DOT": -1.09e-06, "MEAN_MOTION_DDOT": 0}, "tle": {"line1": "1 43491U 18050A   25358.95599528 -.00000109  00000+0  00000+0 0  9999", "line2": "2 43491   2.5804  81.2014 0002410 166.3835 269.6344  1.00270516 27697"}}, "geometry": {"type": "Point", "coordinates": [-81.4751607119079, -0.7893907639923541]}}, {"type": "Feature", "properties": {"norad_id": 43689, "name": "METOP-C", "group": "weather", "lat": 58.153418058620126, "lon": 42.61220702448619, "alt_km": 814.3391565906031, "timestamp": "2025-12-25T07:00:33.686292+00:00", "meta": {"OBJECT_NAME": "METOP-C", "OBJECT_ID": "2018-087A", "EPOCH": "2025-12-24T20:35:44.661120", "MEAN_MOTION": 14.21488904, "ECCENTRICITY": 6.51e-05, "INCLINATION": 98.6912, "RA_OF_ASC_NODE": 56.4411, "ARG_OF_PERICENTER": 17.1279, "MEAN_ANOMALY": 342.992, "EPHEMERIS_TYPE": 0, "CLASSIFICATION_TYPE": "U", "NORAD_CAT_ID": 43689, "ELEMENT_SET_NO": 999, "REV_AT_EPOCH": 37006, "BSTAR": 8.0271927e-05, "MEAN_MOTION_DOT": 1.32e-06, "MEAN_MOTION_DDOT": 0}, "tle": {"line1": "1 43689U 18087A   25358.85815580  .00000132  00000+0  80272-4 0  9995", "line2": "2 43689  98.6912  56.4411 0000651  17.1279 342.9920 14.21488904370063"}}, "geometry": {"type": "Point", "coordinates": [42.61220702448619, 58.153418058620126]}}, {"type": "Feature", "properties": {"norad_id": 43823, "name": "GEO-KOMPSAT-2A", "group": "weather", "lat": -0.01041291487523545, "lon": -32.570715269666884, "alt_km": 35787.5567023781, "timestamp": "2025-12-25T07:00:33.686305+00:00", "meta": {"OBJECT_NAME": "GEO-KOMPSAT-2A", "OBJECT_ID": "2018-100A", "EPOCH": "2025-12-24T05:33:51.801120", "MEAN_MOTION": 1.00269294, "ECCENTRICITY": 3.001e-05, "INCLINATION": 0.0444, "RA_OF_ASC_NODE": 175.8502, "ARG_OF_PERICENTER": 270.743, "MEAN_ANOMALY": 218.1364, "EPHEMERIS_TYPE": 0, "CLASSIFICATION_TYPE": "U", "NORAD_CAT_ID": 43823, "ELEMENT_SET_NO": 999, "REV_AT_EPOCH": 2587, "BSTAR": 0, "MEAN_MOTION_DOT": -3.23e-06, "MEAN_MOTION_DDOT": 0}, "tle": {"line1": "1 43823U 18100A   25358.23184955 -.00000323  00000+0  00000+0 0  9997", "line2": "2 43823   0.0444 175.8502 0000300 270.7430 218.1364  1.00269294 25878"}}, "geometry": {"type": "Point", "coordinates": [-32.570715269666884, -0.01041291487523545]}}, {"type": "Feature", "properties": {"norad_id": 44387, "name": "METEOR-M2 2", "group": "weather", "lat": -76.87796757319535, "lon": 116.94675939055033, "alt_km": 819.0917354829999, "timestamp": "2025-12-25T07:00:33.686316+00:00", "meta": {"OBJECT_NAME": "METEOR-M2 2", "OBJECT_ID": "2019-038A", "EPOCH": "2025-12-24T23:02:49.264224", "MEAN_MOTION": 14.24295472, "ECCENTRICITY": 0.00017899, "INCLINATION": 98.8986, "RA_OF_ASC_NODE": 338.8389, "ARG_OF_PERICENTER": 125.1895, "MEAN_ANOMALY": 234.9451, "EPHEMERIS_TYPE": 0, "CLASSIFICATION_TYPE": "U", "NORAD_CAT_ID": 44387, "ELEMENT_SET_NO": 999, "REV_AT_EPOCH": 33649, "BSTAR": -4.5286307e-05, "MEAN_MOTION_DOT": -1.5e-06, "MEAN_MOTION_DDOT": 0}, "tle": {"line1": "1 44387U 19038A   25358.96029241 -.00000150  00000+0 -45286-4 0  9999", "line2": "2 44387  98.8986 338.8389 0001789 125.1895 234.9451 14.24295472336497"}}, "geometry": {"type": "Point", "coordinates": [116.94675939055033, -76.87796757319535]}}, {"type": "Feature", "properties": {"norad_id": 47719, "name": "ARKTIKA-M 1", "group": "weather", "lat": 62.933395477828135, "lon": -179.18717945626955, "alt_km": 38904.27345372379, "timestamp": "2025-12-25T07:00:33.686329+00:00", "meta": {"OBJECT_NAME": "ARKTIKA-M 1", "OBJECT_ID": "2021-016A", "EPOCH": "2025-12-23T01:01:51.743136", "MEAN_MOTION": 2.00630806, "ECCENTRICITY": 0.72093828, "INCLINATION": 63.1759, "RA_OF_ASC_NODE": 82.5898, "ARG_OF_PERICENTER": 269.1646, "MEAN_ANOMALY": 15.5425, "EPHEMERIS_TYPE": 0, "CLASSIFICATION_TYPE": "U", "NORAD_CAT_ID": 47719, "ELEMENT_SET_NO": 999, "REV_AT_EPOCH": 3525, "BSTAR": 0, "MEAN_MOTION_DOT": -6.7e-07, "MEAN_MOTION_DDOT": 0}, "tle": {"line1": "1 47719U 21016A   25357.04295999 -.00000067  00000+0  00000+0 0  9999", "line2": "2 47719  63.1759  82.5898 7209382 269.1646  15.5425  2.00630806 35258"}}, "geometry": {"type": "Point", "coordinates": [-179.18717945626955, 62.933395477828135]}}, {"type": "Feature", "properties": {"norad_id": 49008, "name": "FENGYUN 3E", "group": "weather", "lat": 19.880487621773202, "lon": -3.527801483510943, "alt_km": 826.4498100958936, "timestamp": "2025-12-25T07:00:33.686359+00:00", "meta": {"OBJECT_NAME": "FENGYUN 3E", "OBJECT_ID": "2021-062A", "EPOCH": "2025-12-25T00:08:59.663904", "MEAN_MOTION": 14.19880478, "ECCENTRICITY": 9.536e-05, "INCLINATION": 98.7476, "RA_OF_ASC_NODE": 359.3815, "ARG_OF_PERICENTER": 191.0635, "MEAN_ANOMALY": 169.052, "EPHEMERIS_TYPE": 0, "CLASSIFICATION_TYPE": "U", "NORAD_CAT_ID": 49008, "ELEMENT_SET_NO": 999, "REV_AT_EPOCH": 23186, "BSTAR": -7.5946387e-05, "MEAN_MOTION_DOT": -2.05e-06, "MEAN_MOTION_DDOT": 0}, "tle": {"line1": "1 49008U 21062A   25359.00624611 -.00000205  00000+0 -75946-4 0  9999", "line2": "2 49008  98.7476 359.3815 0000953 191.0635 169.0520 14.19880478231863"}}, "geometry": {"type": "Point", "coordinates": [-3.527801483510943, 19.880487621773202]}}, {"type": "Feature", "properties": {"norad_id": 51850, "name": "GOES 18", "group": "weather", "lat": -0.0002304684863819745, "lon": 62.18896667936367, "alt_km": 35786.600979548006, "timestamp": "2025-12-25T07:00:33.686373+00:00", "meta": {"OBJECT_NAME": "GOES 18", "OBJECT_ID": "2022-021A", "EPOCH": "2025-12-24T19:17:27.996000", "MEAN_MOTION": 1.00271157, "ECCENTRICITY": 4.047e-05, "INCLINATION": 0.0123, "RA_OF_ASC_NODE": 248.5858, "ARG_OF_PERICENTER": 70.5818, "MEAN_ANOMALY": 286.7694, "EPHEMERIS_TYPE": 0, "CLASSIFICATION_TYPE": "U", "NORAD_CAT_ID": 51850, "ELEMENT_SET_NO": 999, "REV_AT_EPOCH": 484, "BSTAR": 0, "MEAN_MOTION_DOT": 1.18e-06, "MEAN_MOTION_DDOT": 0}, "tle": {"line1": "1 51850U 22021A   25358.80379625  .00000118  00000+0  00000+0 0  9997", "line2": "2 51850   0.0123 248.5858 0000404  70.5818 286.7694  1.00271157  4846"}}, "geometry": {"type": "Point", "coordinates": [62.18896667936367, -0.0002304684863819745]}}]}